uid,id,hash,cip_id,number,street,unit,city,district,region,postcode,auto_generated
9070d51c-43e2-44cb-8be1-5a7789c72795,11781,a7c8e8dae450ecb9,BMa7c8e8dae450ecb9,1,Abri Lane,,,Pembroke,,HM02,null
b8403915-3026-43aa-a56d-ae832317b48d,32714,def91be0039f9abd,BMdef91be0039f9abd,15,Allspice Gardens,,,Warwick,,WK04,null
f0945768-cb9d-4c33-8395-57dc734a2362,31072,5a0ef2c22c212b9b,BM5a0ef2c22c212b9b,4,Addendum Lane South,,,Pembroke,,HM07,null
87b7f507-9fc2-4adf-bb0b-f182000cd049,31255,84c741111844f6bb,BM84c741111844f6bb,5,Addendum Lane,,,Pembroke,,HM07,null
9adfc512-e93b-403f-b96a-dfd58c045829,7791,d32294659582547b,BMd32294659582547b,9,Addendum Lane,,,Pembroke,,HM07,null
84d959f7-e14c-4ead-a46f-f661a3cdffd8,13731,7fd846689867c00a,BM7fd846689867c00a,11,Abri Lane,,,Pembroke,,HM02,null
86457e65-69ec-4e1e-80fa-30ae4ac55283,9260,b84e7ad68021a366,BMb84e7ad68021a366,10,Arlington Avenue,,,Pembroke,,HM02,null
67f5ab56-c5a6-4367-8503-1bcb50eec808,13969,e3d07e894591cf6b,BMe3d07e894591cf6b,1,Bakery Lane,,,Pembroke,,HM07,null
cdbd6de4-67d5-48f6-b954-dd125f3836dc,15989,429a38eeecda9701,BM429a38eeecda9701,5,Abri Lane,,,Pembroke,,HM02,null
6fae3662-72ac-4bca-939e-88fbf4ee71d7,9619,44d824b5744c5411,BM44d824b5744c5411,11,Addendum Lane,,,Pembroke,,HM07,null
4d4bfd66-6a8c-449c-b751-f1e87add17c2,15059,0ae9f3dd48137f5a,BM0ae9f3dd48137f5a,3,Abri Lane,,,Pembroke,,HM02,null
df93d4e4-e5af-4684-991c-2845c5dbcdd3,7916,c7b629ff5ba80672,BMc7b629ff5ba80672,13,Addendum Lane,,,Pembroke,,HM07,null
817de0e5-7214-454c-8ffb-f83b678bb790,31073,2a7b04c31168e9c4,BM2a7b04c31168e9c4,6,Addendum Lane South,,,Pembroke,,HM07,null
3babee34-cdb2-4bc4-a2a4-e4d3f51fc366,9259,1fb321218785e9a6,BM1fb321218785e9a6,12,Arlington Avenue,,,Pembroke,,HM02,null
0bbd01b0-db8f-4842-bdb1-67d9e69a96ef,9153,e9af5f86b43dbd6c,BMe9af5f86b43dbd6c,6,Bakery Lane,,,Pembroke,,HM07,null
465b2a0f-ba7b-4ea1-b7ca-481c210ef8fe,32712,6770e8fc701c0a1e,BM6770e8fc701c0a1e,11,Allspice Gardens,,,Warwick,,WK03,null
c7eab6e7-35d7-40e3-84dc-76a238e6425a,32713,9103881c8857f8f9,BM9103881c8857f8f9,13,Allspice Gardens,,,Warwick,,WK03,null
a8c9f776-5ea4-497b-9f42-9d41bfc16ca1,32715,cd55f5a31097ebb2,BMcd55f5a31097ebb2,17,Allspice Gardens,,,Warwick,,WK03,null
67f658df-2ad1-4fbd-82d9-e6a57a6796bf,32662,c50ef99a9f966c60,BMc50ef99a9f966c60,5,Addendum Lane,,,Pembroke,,HM07,null
d76f2f0e-598f-4986-a9bc-4d54baef54ef,12256,43eb7d6f6d8061d0,BM43eb7d6f6d8061d0,14,Bayfield Road,,,Warwick,,WK04,null
4d5e8799-55a1-42b0-8556-cbbfd82c70e3,31460,dca131973cf0ee6b,BMdca131973cf0ee6b,14,Ardsheal Drive,,,Paget,,PG06,null
e8f66edd-0c6f-463d-a6e1-18d600f2f8e4,31074,30eca3ab4d77ab05,BM30eca3ab4d77ab05,3,Addendum Lane South,,,Pembroke,,HM07,null
b5caebb4-28c7-4225-b640-78d679c76b3f,30785,7f1a7bffffe2f7b3,BM7f1a7bffffe2f7b3,10,Agar's Hill,,,Pembroke,,HM05,null
263911e9-7d01-48b5-978d-8ec9172382cf,16167,394d8f4ee0106672,BM394d8f4ee0106672,4,Addendum Lane,,,Pembroke,,HM07,null
5746a230-c782-4820-b3f8-cbf8aa2ef52f,16829,b58b6a3538816acb,BMb58b6a3538816acb,11,Agar's Island,,,Pembroke,,HM05,null
76920df0-1179-423b-9eeb-302609447ac7,16349,beb593df255c8c24,BMbeb593df255c8c24,1,Agar's Island,,,Pembroke,,HM05,null
727ffa3d-2539-47c7-8f53-58786817ad66,9463,ddf163b8b65404b2,BMddf163b8b65404b2,9,Agar's Island,,,Pembroke,,HM05,null
3e21e9c9-ef9e-45c3-92b3-b3ff84ef79e5,9462,ba9e42e04bbd5450,BMba9e42e04bbd5450,5,Agar's Island,,,Pembroke,,HM05,null
db3e8c09-a7c7-40dd-9df9-19cee5990489,9454,5682c49929d35ff3,BM5682c49929d35ff3,3,Agar's Island,,,Pembroke,,HM05,null
2759abf1-bda3-46f5-8137-15884fc30ff4,2649,0cac38c433c8b06c,BM0cac38c433c8b06c,7,Agar's Island,,,Pembroke,,HM05,null